STARLINK-32160
1 60261U 24131G   26076.84719676  .00007446  00000+0  26350-3 0  9994
2 60261  53.1618  14.8136 0001461  96.9807 263.1360 15.30172586 93017
STARLINK-3727
1 52125U 22029AP  26076.90361923  .00001467  00000+0  11027-3 0  9995
2 52125  53.2186  32.2463 0001677  88.2772 271.8413 15.08832400222178
STARLINK-2109
1 47388U 21005AR  26076.56936460  .00000857  00000+0  76451-4 0  9994
2 47388  53.0568  26.2439 0001708  89.7628 270.3557 15.06394447284221
STARLINK-32238
1 61661U 24193A   26076.65609447  .00000922  00000+0  43280-4 0  9994
2 61661  53.1616  54.1956 0001439  81.1304 278.9860 15.30184758 77745
STARLINK-1053
1 44758U 19074AX  26077.00002315  .00245075  35444-4  53586-3 0  9999
2 44758  53.0257  40.7942 0006281 103.5269 185.7908 15.97733855  6075
STARLINK-31529
1 59000U 24036C   26076.84984661 -.00000015  00000+0  11635-4 0  9992
2 59000  53.1620  38.0294 0001200  87.5552 272.5586 15.30195821116529
STARLINK-5431
1 54792U 22175AL  26076.96659567  .00001118  00000+0  88341-4 0  9996
2 54792  53.2201   6.6045 0001351  89.9031 270.2116 15.08831435181178
STARLINK-11472 [DTC]
1 62067U 24217L   26076.87119137  .00150211  00000+0  12180-2 0  9998
2 62067  53.1574  31.2827 0001404  89.6399 270.4780 15.69796438 76384
STARLINK-4167
1 53033U 22076AZ  26076.90499909  .00000055  00000+0  21544-4 0  9990
2 53033  53.2181  37.2402 0001378  90.5580 269.5571 15.08832665204364
STARLINK-33860
1 64033U 25102M   26076.76895451 -.00000546  00000+0 -38000-4 0  9993
2 64033  70.0000  94.0336 0003419 269.6055  90.4712 14.98330090 47179
STARLINK-36899
1 68058U 26041U   26076.91670139  .00022493  00000+0  15080-3 0  9993
2 68058  53.1600  20.8324 0001026 100.4056 147.5167 15.75193876  3699
STARLINK-5454
1 54774U 22175S   26076.96614785  .00003363  00000+0  22937-3 0  9991
2 54774  53.2185 351.6501 0001390  80.7623 279.3526 15.08829947181381
STARLINK-36952
1 68062U 26041Y   26076.91670139  .00041695  00000+0  27494-3 0  9995
2 68062  53.1600  20.8286 0001047  84.6466 165.0711 15.75228691  3696
STARLINK-31735
1 60054U 24112S   26076.91568792  .00003305  00000+0  12365-3 0  9993
2 60054  53.1608  39.9528 0001138  75.5715 284.5413 15.30204358 99858
STARLINK-35614
1 66164U 25240U   26076.58696977  .00018369  00000+0  63069-3 0  9997
2 66164  53.1616  26.3956 0001560  99.8593 260.2584 15.30204382 23193
STARLINK-1269
1 45197U 20012V   26076.78128007  .00002039  00000+0  80961-4 0  9996
2 45197  53.1618   2.0061 0001322  74.2386 285.8761 15.30189050336156
